TIANMU-1 13             
1 58647U 23205C   24262.51019640  .00009396  00000+0  48043-3 0  9992
2 58647  97.4004 285.2086 0011177  64.0373 296.2010 15.16812250 40631
TIANMU-1 14             
1 58648U 23205D   24262.49400924  .00010112  00000+0  51669-3 0  9995
2 58648  97.3929 284.9666 0011870  66.2449 294.0028 15.16808537 40633
TIANMU-1 19             
1 58660U 23208A   24262.49640558  .00012322  00000+0  63002-3 0  9990
2 58660  97.4169  12.6898 0007190  47.4084 312.7755 15.16773182 40309
TIANMU-1 20             
1 58661U 23208B   24262.44646444  .00012914  00000+0  63654-3 0  9996
2 58661  97.4103  12.6500 0010199  55.8321 304.3878 15.18025421 40310
TIANMU-1 21             
1 58662U 23208C   24262.51182942  .00013954  00000+0  66642-3 0  9998
2 58662  97.4142  13.1553 0009753  55.5043 304.7112 15.19110522 40346
TIANMU-1 22             
1 58663U 23208D   24262.51123414  .00012131  00000+0  61420-3 0  9993
2 58663  97.4162  12.7678 0005871  70.5277 289.6591 15.17131192 40318
TIANMU-1 15             
1 58700U 24004A   24262.49196380  .00010427  00000+0  53150-3 0  9996
2 58700  97.4637  81.9901 0010833  89.8670 270.3805 15.16896719 38907
TIANMU-1 16             
1 58701U 24004B   24262.47256702  .00011244  00000+0  57217-3 0  9996
2 58701  97.4562  81.7672 0010725  95.0107 265.2351 15.16938061 38908
TIANMU-1 17             
1 58702U 24004C   24262.52521182  .00010954  00000+0  55842-3 0  9999
2 58702  97.4605  81.9967 0008575  90.0647 270.1569 15.16900171 38907
TIANMU-1 18             
1 58703U 24004D   24262.50769662  .00010477  00000+0  53462-3 0  9991
2 58703  97.4624  82.0725 0007912  81.6321 278.5809 15.16884172 38903
INSAT-3DS               
1 58990U 24033A   24261.89349552 -.00000165  00000+0  00000+0 0  9994
2 58990   0.0479 272.0835 0001648 269.9074 219.0670  1.00271878 40672
METEOR-M2 4             
1 59051U 24039A   24262.49069396  .00000147  00000+0  85695-4 0  9998
2 59051  98.6083 222.1307 0006367 205.9590 154.1269 14.22268137 28751
GOES 19                 
1 60133U 24119A   24262.48040104 -.00000191  00000+0  00000+0 0  9997
2 60133   0.0142 157.1612 0001696 304.3625 339.8456  1.00267855   923
